H1 CPF 01  gfz 2021 11 14 13  8182 tandemx   
H2 1003001  6202 36605    2021 11 14 12 59 42 2021 11 19 00 00 42   120 1 1  0 0 0
H9
10 0 59534  39582.000000  0     -54903.880  -2877280.664  -6265866.287
10 0 59534  39702.000000  0    -339604.825  -2059372.596  -6571782.289
10 0 59534  39822.000000  0    -603753.275  -1200989.599  -6763049.245
10 0 59534  39942.000000  0    -842203.141   -317413.950  -6836378.394
10 0 59534  40062.000000  0   -1050525.075    575566.362  -6790510.486
10 0 59534  40182.000000  0   -1225086.419   1461932.420  -6626234.127
10 0 59534  40302.000000  0   -1363113.135   2325714.394  -6346373.513
10 0 59534  40422.000000  0   -1462733.079   3151272.179  -5955746.133
10 0 59534  40542.000000  0   -1523000.784   3923575.569  -5461089.434
10 0 59534  40662.000000  0   -1543902.232   4628477.223  -4870955.491
10 0 59534  40782.000000  0   -1526340.426   5252975.848  -4195574.871
10 0 59534  40902.000000  0   -1472101.124   5785463.078  -3446688.683
10 0 59534  41022.000000  0   -1383798.764   6215948.009  -2637352.068
10 0 59534  41142.000000  0   -1264804.123   6536255.988  -1781712.321
10 0 59534  41262.000000  0   -1119154.712   6740195.983   -894762.392
10 0 59534  41382.000000  0    -951450.019   6823690.717      7923.446
10 0 59534  41502.000000  0    -766733.519   6784868.229    910468.562
10 0 59534  41622.000000  0    -570364.590   6624108.773   1796983.163
10 0 59534  41742.000000  0    -367883.841   6344043.199   2651854.513
10 0 59534  41862.000000  0    -164875.573   5949505.946   3460028.941
10 0 59534  41982.000000  0      33168.976   5447446.310   4207281.985
10 0 59534  42102.000000  0     220984.467   4846800.046   4880475.237
10 0 59534  42222.000000  0     393658.368   4158315.433   5467789.389
10 0 59534  42342.000000  0     546747.312   3394352.141   5958925.845
10 0 59534  42462.000000  0     676380.728   2568651.734   6345284.744
10 0 59534  42582.000000  0     779349.105   1696083.432   6620109.377
10 0 59534  42702.000000  0     853176.283    792372.090   6778598.549
10 0 59534  42822.000000  0     896174.077   -126186.906   6817984.479
10 0 59534  42942.000000  0     907478.447  -1043020.158   6737578.676
10 0 59534  43062.000000  0     887066.428  -1941575.277   6538784.164
10 0 59534  43182.000000  0     835753.608  -2805619.539   6225072.979
10 0 59534  43302.000000  0     755172.057  -3619535.212   5801929.040
10 0 59534  43422.000000  0     647728.966  -4368603.440   5276755.368
10 0 59534  43542.000000  0     516548.407  -5039273.227   4658750.937
10 0 59534  43662.000000  0     365395.973  -5619413.808   3958756.790
10 0 59534  43782.000000  0     198586.776  -6098544.666   3189069.737
10 0 59534  43902.000000  0      20879.333  -6468035.460   2363227.124
10 0 59534  44022.000000  0    -162642.369  -6721270.596   1495766.482
10 0 59534  44142.000000  0    -346695.443  -6853776.628    601966.326
10 0 59534  44262.000000  0    -525930.910  -6863308.302   -302431.580
10 0 59534  44382.000000  0    -695068.599  -6749887.138  -1201509.632
10 0 59534  44502.000000  0    -849030.119  -6515793.633  -2079463.275
10 0 59534  44622.000000  0    -983067.153  -6165515.394  -2920885.430
10 0 59534  44742.000000  0   -1092882.239  -5705652.241  -3711042.111
10 0 59534  44862.000000  0   -1174738.695  -5144779.848  -4436132.734
10 0 59534  44982.000000  0   -1225556.753  -4493276.578  -5083528.560
10 0 59534  45102.000000  0   -1242994.321  -3763120.099  -5641986.082
10 0 59534  45222.000000  0   -1225510.541  -2967658.274  -6101833.422
10 0 59534  45342.000000  0   -1172411.163  -2121358.947  -6455127.403
10 0 59534  45462.000000  0   -1083875.252  -1239544.057  -6695778.984
10 0 59534  45582.000000  0    -960963.338   -338113.926  -6819647.554
10 0 59534  45702.000000  0    -805606.542    566735.091  -6824604.226
10 0 59534  45822.000000  0    -620576.231   1458794.361  -6710563.514
10 0 59534  45942.000000  0    -409436.039   2322125.570  -6479484.585
10 0 59534  46062.000000  0    -176476.517   3141338.538  -6135342.287
10 0 59534  46182.000000  0      73368.186   3901862.471  -5684067.395
10 0 59534  46302.000000  0     334619.731   4590204.383  -5133453.785
10 0 59534  46422.000000  0     601368.801   5194191.192  -4493035.699
10 0 59534  46542.000000  0     867401.133   5703192.607  -3773933.710
10 0 59534  46662.000000  0    1126334.010   6108318.094  -2988670.363
10 0 59534  46782.000000  0    1371760.138   6402584.044  -2150958.604
10 0 59534  46902.000000  0    1597396.068   6581047.128  -1275464.864
10 0 59534  47022.000000  0    1797231.658   6640899.124   -377550.509
10 0 59534  47142.000000  0    1965676.402   6581519.132    527003.159
10 0 59534  47262.000000  0    2097698.283   6404482.016   1422279.280
10 0 59534  47382.000000  0    2188952.427   6113523.342   2292513.437
10 0 59534  47502.000000  0    2235895.950   5714460.936   3122379.216
10 0 59534  47622.000000  0    2235886.423   5215075.850   3897265.696
10 0 59534  47742.000000  0    2187260.270   4624954.441   4603541.234
10 0 59534  47862.000000  0    2089389.699   3955294.171   5228797.612
10 0 59534  47982.000000  0    1942716.443   3218679.869   5762065.082
10 0 59534  48102.000000  0    1748763.949   2428840.919   6194000.350
10 0 59534  48222.000000  0    1510126.344   1600389.499   6517046.236
10 0 59534  48342.000000  0    1230434.369    748545.048   6725557.798
10 0 59534  48462.000000  0     914299.639   -111146.936   6815893.784
10 0 59534  48582.000000  0     567238.464   -963097.105   6786477.071
10 0 59534  48702.000000  0     195575.345  -1791955.290   6637821.657
10 0 59534  48822.000000  0    -193672.467  -2582887.000   6372524.029
10 0 59534  48942.000000  0    -592927.025  -3321840.053   5995219.826
10 0 59534  49062.000000  0    -994194.788  -3995794.900   5512505.355
10 0 59534  49182.000000  0   -1389223.514  -4592995.901   4932829.345
10 0 59534  49302.000000  0   -1769670.775  -5103163.226   4266353.756
10 0 59534  49422.000000  0   -2127279.411  -5517679.836   3524780.630
10 0 59534  49542.000000  0   -2454055.626  -5829746.308   2721147.436
10 0 59534  49662.000000  0   -2742445.228  -6034499.392   1869596.576
10 0 59534  49782.000000  0   -2985503.969  -6129093.579    985122.987
10 0 59534  49902.000000  0   -3177057.906  -6112742.841     83303.866
10 0 59534  50022.000000  0   -3311849.547  -5986720.982   -819983.654
10 0 59534  50142.000000  0   -3385666.164  -5754320.279  -1708851.148
10 0 59534  50262.000000  0   -3395446.912  -5420768.987  -2567686.929
10 0 59534  50382.000000  0   -3339366.093  -4993110.379  -3381437.046
10 0 59534  50502.000000  0   -3216889.977  -4480046.578  -4135872.654
10 0 59534  50622.000000  0   -3028806.581  -3891752.950  -4817837.666
10 0 59534  50742.000000  0   -2777228.937  -3239668.401  -5415473.416
10 0 59534  50862.000000  0   -2465572.408  -2536266.259  -5918416.945
10 0 59534  50982.000000  0   -2098506.513  -1794811.429  -6317970.879
10 0 59534  51102.000000  0   -1681881.785  -1029108.296  -6607243.023
10 0 59534  51222.000000  0   -1222634.545   -253244.671  -6781253.262
10 0 59534  51342.000000  0    -728672.171    518662.977  -6837008.944
10 0 59534  51462.000000  0    -208739.078   1272719.674  -6773550.823
10 0 59534  51582.000000  0     327734.062   1995495.417  -6591967.369
10 0 59534  51702.000000  0     870796.007   2674258.496  -6295380.077
10 0 59534  51822.000000  0    1410156.182   3297197.007  -5888896.496
10 0 59534  51942.000000  0    1935375.218   3853623.581  -5379530.438
10 0 59534  52062.000000  0    2436063.784   4334160.251  -4776092.227
10 0 59534  52182.000000  0    2902086.455   4730901.931  -4089047.957
10 0 59534  52302.000000  0    3323766.324   5037554.307  -3330347.666
10 0 59534  52422.000000  0    3692086.893   5249542.507  -2513225.437
10 0 59534  52542.000000  0    3998886.741   5364087.451  -1651972.248
10 0 59534  52662.000000  0    4237040.800   5380247.514   -761686.569
10 0 59534  52782.000000  0    4400624.331   5298924.532    141994.021
10 0 59534  52902.000000  0    4485055.065   5122831.361   1043174.230
10 0 59534  53022.000000  0    4487207.938   4856422.487   1925987.965
10 0 59534  53142.000000  0    4405502.708   4505792.161   2774885.337
10 0 59534  53262.000000  0    4239959.793   4078537.663   3574917.023
10 0 59534  53382.000000  0    3992221.103   3583592.833   4312003.667
10 0 59534  53502.000000  0    3665539.621   3031037.378   4973186.127
10 0 59534  53622.000000  0    3264736.467   2431887.500   5546856.284
10 0 59534  53742.000000  0    2796123.431   1797870.163   6022957.482
10 0 59534  53862.000000  0    2267399.703   1141190.061   6393155.195
10 0 59534  53982.000000  0    1687521.391    474291.671   6650976.670
10 0 59534  54102.000000  0    1066546.773   -190376.156   6791917.824
10 0 59534  54222.000000  0     415460.215   -840591.754   6813518.639
10 0 59534  54342.000000  0    -254022.798  -1464585.859   6715403.335
10 0 59534  54462.000000  0    -929666.583  -2051254.345   6499285.937
10 0 59534  54582.000000  0   -1598938.247  -2590355.884   6168940.687
10 0 59534  54702.000000  0   -2249237.614  -3072690.569   5730139.884
10 0 59534  54822.000000  0   -2868134.053  -3490259.644   5190561.162
10 0 59534  54942.000000  0   -3443608.110  -3836402.998   4559660.046
10 0 59534  55062.000000  0   -3964289.471  -4105909.395   3848507.911
10 0 59534  55182.000000  0   -4419685.400  -4295098.411   3069600.399
10 0 59534  55302.000000  0   -4800396.378  -4401872.681   2236639.378
10 0 59534  55422.000000  0   -5098314.914  -4425739.093   1364289.806
10 0 59534  55542.000000  0   -5306800.698  -4367796.303    467915.985
10 0 59534  55662.000000  0   -5420828.066  -4230689.699   -436696.350
10 0 59534  55782.000000  0   -5437101.875  -4018534.843  -1333627.021
10 0 59534  55902.000000  0   -5354138.010  -3736810.478  -2207111.634
10 0 59534  56022.000000  0   -5172305.647  -3392223.838  -3041826.178
99
